AMC-1 (GE-1)            
1 24315U 96054A   21349.14491038  .00000076  00000+0  00000+0 0  9999
2 24315   5.1878  74.6770 0003632 195.1571  95.4532  1.00273283 92522
AMC-3 (GE-3)            
1 24936U 97050A   21348.84312687 -.00000248  00000+0  00000+0 0  9995
2 24936   4.0973  81.1825 0003176 183.8805  50.1871  1.00271465 35932
ASTRA 1G                
1 25071U 97076A   21349.00486170  .00000126  00000+0  00000+0 0  9996
2 25071   5.8271  69.6632 0003675 196.2726 199.0757  1.00273156 88049
ASTRA 2A                
1 25462U 98050A   21349.22194807  .00000162  00000+0  00000+0 0  9990
2 25462   2.9475  87.5172 0002398 175.4781 288.9685  1.00274567 85240
AMC-4 (GE-4)            
1 25954U 99060A   21348.75878677  .00000101  00000+0  00000+0 0  9992
2 25954   1.0586  93.8750 0003266 175.0336 312.9966  1.00272919 27052
NSS-11 (AAP-1)          
1 26554U 00059A   21349.10786652  .00000040  00000+0  00000+0 0  9992
2 26554   0.0150 337.3482 0002711 295.6592  25.8129  1.00271829 77673
AMC-6 (GE-6)            
1 26580U 00067A   21348.75800181  .00000118  00000+0  00000+0 0  9990
2 26580   0.0162 331.6030 0003188 298.2657 307.6538  1.00271027 77429
ASTRA 2D                
1 26638U 00081A   21348.93392113  .00000139  00000+0  00000+0 0  9994
2 26638   6.9059  61.5232 0002127 221.7434 160.4866  1.00275903 76898
AMC-8 (GE-8)            
1 26639U 00081B   21348.68700608  .00000101  00000+0  00000+0 0  9998
2 26639   1.9851  90.5313 0002694 171.4708 293.8943  1.00271322 76832
ASTRA 2C                
1 26853U 01025A   21349.15624503 -.00000246  00000+0  00000+0 0  9998
2 26853   4.1240  80.9740 0002793 178.4362 168.3864  1.00270482 75076
ASTRA 3A                
1 27400U 02015B   21349.17105014 -.00000194  00000+0  00000+0 0  9992
2 27400   7.0169  60.3641 0001763 196.7298 161.7486  1.00272272 72226
NSS-7                   
1 27414U 02019A   21349.42769606 -.00000146  00000+0  00000+0 0  9999
2 27414   5.4730  72.7851 0002438 199.5221 305.9578  1.00271332 72066
NSS-6                   
1 27603U 02057A   21349.11074472  .00000122  00000+0  00000+0 0  9990
2 27603   1.1491  93.7137 0003452 171.3165  49.2964  1.00272217 69533
AMC-11 (GE-11)          
1 28252U 04017A   21348.68779104  .00000083  00000+0  00000+0 0  9990
2 28252   0.0151   0.5820 0002997 273.8047 285.7999  1.00273741 64386
AMC-15                  
1 28446U 04041A   21349.15996098 -.00000074  00000+0  00000+0 0  9999
2 28446   0.0245  34.3708 0003133 241.2226 120.9896  1.00272258 62854
NSS-10 (AMC-12)         
1 28526U 05003A   21348.85001712 -.00000237  00000+0  00000+0 0  9994
2 28526   2.3299  89.2790 0003214 162.4728 100.5412  1.00272694 36659
ASTRA 1KR               
1 29055U 06012A   21349.15820622  .00000135  00000+0  00000+0 0  9992
2 29055   0.0651 277.7963 0005207 330.0153 272.3911  1.00275393 57259
AMC-18                  
1 29644U 06054B   21349.41513662 -.00000200  00000+0  00000+0 0  9998
2 29644   0.0130 329.6241 0002616 283.6977 257.4273  1.00268977 55050
ASTRA 1L                
1 31306U 07016A   21349.15820622  .00000135  00000+0  00000+0 0  9999
2 31306   0.0765 301.3570 0005609 337.9482 240.8948  1.00275104 53540
ASTRA 4A (SIRIUS 4)     
1 32299U 07057A   21349.36079962  .00000048  00000+0  00000+0 0  9995
2 32299   0.0208  34.0719 0003100 232.0807 312.7817  1.00273125 51463
AMC-21                  
1 33275U 08038B   21348.68892487  .00000050  00000+0  00000+0 0  9992
2 33275   0.0156 334.2579 0002835 298.2502 294.1822  1.00272446 48997
ASTRA 1M                
1 33436U 08057A   21349.15820622  .00000135  00000+0  00000+0 0  9991
2 33436   0.0600 104.9357 0002313 106.6276 308.5996  1.00272436 47986
CIEL-2                  
1 33453U 08063A   21348.75992059  .00000072  00000+0  00000+0 0  9996
2 33453   0.0465 138.7691 0003164 122.0898 327.5053  1.00273042 47638
NSS-9                   
1 33749U 09008A   21349.10926201  .00000087  00000+0  00000+0 0  9996
2 33749   0.0236  39.5238 0002426 216.8077  50.0535  1.00272998 47067
SES-7 (PROTOSTAR 2)     
1 34941U 09027A   21349.45325104 -.00000329  00000+0  00000+0 0  9995
2 34941   0.0191  41.7749 0002267 215.7409  98.2486  1.00272019 46123
NSS-12                  
1 36032U 09058A   21349.44304649  .00000087  00000+0  00000+0 0  9992
2 36032   0.0108   3.7818 0003056 265.6602  31.3705  1.00272406 44417
SES-1                   
1 36516U 10016A   21348.82015786 -.00000100  00000+0  00000+0 0  9994
2 36516   0.0123 332.8680 0002553 291.6554  13.4377  1.00271492 42542
ASTRA 3B                
1 36581U 10021A   21349.00564666  .00000151  00000+0  00000+0 0  9994
2 36581   0.0526 320.4751 0003897 288.9951 219.9391  1.00270806 42159
SES-3                   
1 37748U 11035A   21349.41112457 -.00000086  00000+0  00000+0 0  9996
2 37748   0.0245 327.8686 0003005 286.6625 234.7672  1.00271429 38205
ASTRA 1N                
1 37775U 11041A   21349.29172271  .00000135  00000+0  00000+0 0  9993
2 37775   0.0656  51.9205 0002362 276.1322 240.3317  1.00274643 37902
SES-2                   
1 37809U 11049A   21348.84016146 -.00000182  00000+0  00000+0 0  9990
2 37809   0.0096 346.3971 0002988 274.9128  37.8682  1.00272016 37460
QUETZSAT 1              
1 37826U 11054A   21349.14631384 -.00000227  00000+0  00000+0 0  9996
2 37826   0.0125   3.7513 0002465 258.9980 156.9438  1.00271061 37603
SES-4                   
1 38087U 12007A   21349.14013729 -.00000153  00000+0  00000+0 0  9990
2 38087   0.0145  44.9599 0002339 228.9828 198.5337  1.00270026 35994
SES-5                   
1 38652U 12036A   21348.85847729  .00000048  00000+0  00000+0 0  9994
2 38652   0.0546 297.2490 0002053 325.2198 135.3052  1.00272267 27997
ASTRA 2F                
1 38778U 12051A   21349.29372873  .00000165  00000+0  00000+0 0  9992
2 38778   0.0850 250.2328 0004398 350.9868 336.8964  1.00273092 33798
SES-6                   
1 39172U 13026A   21349.46174470 -.00000245  00000+0  00000+0 0  9996
2 39172   0.0253 318.9096 0002658 304.6623 306.5051  1.00271458 31221
O3B FM5                 
1 39188U 13031A   21348.55381891 -.00000020  00000+0  00000+0 0  9996
2 39188   0.0347 352.4909 0002519 282.0323  85.4497  5.00116195154717
O3B FM4                 
1 39189U 13031B   21348.81941819 -.00000020  00000+0  00000+0 0  9998
2 39189   0.0532  20.4945 0003608 210.2023 129.2730  5.00116263154742
O3B FM2                 
1 39190U 13031C   21348.67200706 -.00000020  00000+0  00000+0 0  9997
2 39190   0.0568  24.5143 0006289 184.9623 150.4896  5.00115935154798
O3B PFM                 
1 39191U 13031D   21348.69880849 -.00000020  00000+0  00000+0 0  9992
2 39191   0.0405   2.8943 0002602 260.6026  96.4752  5.00115810154578
ASTRA 2E                
1 39285U 13056A   21348.93488053  .00000165  00000+0  00000+0 0  9990
2 39285   0.0568 355.8725 0002156 266.5492 186.4347  1.00273562 30092
SES-8                   
1 39460U 13071A   21349.45054726 -.00000254  00000+0  00000+0 0  9996
2 39460   0.0344 263.6192 0000998  16.1254  61.7831  1.00271744 29383
ASTRA 5B                
1 39617U 14011B   21348.93549108  .00000169  00000+0  00000+0 0  9994
2 39617   0.0379 331.4832 0003755 281.0533 199.5243  1.00271023 28372
O3B FM3                 
1 40079U 14038A   21348.80679044 -.00000020  00000+0  00000+0 0  9993
2 40079   0.0467  15.5744 0003640 289.0107  55.3823  5.00115410130732
O3B FM7                 
1 40080U 14038B   21349.35276402 -.00000020  00000+0  00000+0 0  9997
2 40080   0.0470  21.0404 0002848 203.8336 135.1048  5.00115929135860
O3B FM6                 
1 40081U 14038C   21348.57939986 -.00000020  00000+0  00000+0 0  9994
2 40081   0.0478  15.4908 0002666 247.7968  96.6838  5.00115531135497
O3B FM8                 
1 40082U 14038D   21348.83327822 -.00000020  00000+0  00000+0 0  9994
2 40082   0.0508  16.8884 0002824 247.6472  95.4340  5.00115484135622
O3B FM10                
1 40348U 14083A   21348.65946794 -.00000020  00000+0  00000+0 0  9994
2 40348   0.0455   4.9673 0002665 259.6733  95.3307  5.00115919127578
O3B FM11                
1 40349U 14083B   21348.67276888 -.00000020  00000+0  00000+0 0  9997
2 40349   0.0412   7.4155 0002168 243.8364 108.7263  5.00115203127596
O3B FM12                
1 40350U 14083C   21348.74027608 -.00000020  00000+0  00000+0 0  9991
2 40350   0.0422   8.0800 0002652 250.1869 101.7050  5.00115773127603
O3B FM9                 
1 40351U 14083D   21348.52693915 -.00000020  00000+0  00000+0 0  9998
2 40351   0.0400   7.7713 0002597 255.2277  96.9732  5.00115048127748
ASTRA 2G                
1 40364U 14089A   21349.29372873  .00000165  00000+0  00000+0 0  9999
2 40364   0.0369  37.0898 0001504 321.6615 219.3630  1.00271877 25527
SES-9                   
1 41380U 16013A   21349.09434769 -.00000330  00000+0  00000+0 0  9993
2 41380   0.0197 303.6388 0000086 272.8779   9.7300  1.00272325 21253
SES-10                  
1 42432U 17017A   21348.98767969 -.00000258  00000+0  00000+0 0  9994
2 42432   0.0084 334.3682 0002840 285.1284 113.0477  1.00272308 17231
SES-15                  
1 42709U 17026A   21349.14544802  .00000075  00000+0  00000+0 0  9995
2 42709   0.0201  11.6338 0000568 242.2102 113.3872  1.00270340 17696
SES-11 (ECHOSTAR 105)   
1 42967U 17063A   21348.83641108 -.00000075  00000+0  00000+0 0  9995
2 42967   0.0316 288.9533 0002402 327.3207  23.6093  1.00269537 15226
SES-14                  
1 43175U 18012B   21349.42220131 -.00000263  00000+0  00000+0 0  9996
2 43175   0.0079 335.3103 0001217 282.1748 291.3011  1.00271798 14567
O3B FM15                
1 43231U 18024A   21349.19292781 -.00000020  00000+0  00000+0 0  9997
2 43231   0.0485   2.7450 0002689 263.0252  94.2009  5.00115773 68901
O3B FM16                
1 43232U 18024B   21348.84647096 -.00000020  00000+0  00000+0 0  9992
2 43232   0.0517 359.5984 0002673 264.9580  95.4149  5.00115673 68626
O3B FM14                
1 43233U 18024C   21349.08597018 -.00000020  00000+0  00000+0 0  9998
2 43233   0.0532 359.1878 0002647 261.8202  98.9638  5.00116175 68876
O3B FM13                
1 43234U 18024D   21349.09981724 -.00000020  00000+0  00000+0 0  9991
2 43234   0.0251 351.1849 0000657 353.9133  14.9017  5.00115547 68882
SES-12                  
1 43488U 18049A   21349.09173115 -.00000255  00000+0  00000+0 0  9996
2 43488   0.0263  46.4548 0002569 217.4951 308.0481  1.00272034 12918
O3B FM20                
1 44112U 19020A   21348.71268885 -.00000020  00000+0  00000+0 0  9998
2 44112   0.0460   5.4308 0002328 257.8410  96.7034  5.00115291 49248
O3B FM19                
1 44113U 19020B   21349.29969700 -.00000020  00000+0  00000+0 0  9997
2 44113   0.0277 317.8803 0002143 336.2352  65.8640  5.00115452 49347
O3B FM17                
1 44114U 19020C   21348.62013423 -.00000020  00000+0  00000+0 0  9996
2 44114   0.0651  10.6409 0002637 256.0522  93.2785  5.00115302 49204
O3B FM18                
1 44115U 19020D   21348.56680270 -.00000020  00000+0  00000+0 0  9990
2 44115   0.0456   5.1330 0002821 259.8689  94.9675  5.00115625 49316
SES-17                  
1 49332U 21095A   21349.00000000 -.00000155  00000+0  00000+0 0  9997
2 49332   4.6211 260.1570 5998425 184.0666 287.6618  1.72896594  1078
